[{"OBJECT_NAME":"LEMUR-2-THERMORAPTOR","OBJECT_ID":"2025-061D","EPOCH":"2026-03-09T21:59:50.013312","MEAN_MOTION":15.13256334,"ECCENTRICITY":0.00176188,"INCLINATION":97.562,"RA_OF_ASC_NODE":45.6468,"ARG_OF_PERICENTER":235.5571,"MEAN_ANOMALY":124.3996,"EPHEMERIS_TYPE":0,"CLASSIFICATION_TYPE":"U","NORAD_CAT_ID":63354,"ELEMENT_SET_NO":999,"REV_AT_EPOCH":5259,"BSTAR":0.00030402789,"MEAN_MOTION_DOT":5.359e-5,"MEAN_MOTION_DDOT":0},{"OBJECT_NAME":"CZ-6A DEB","OBJECT_ID":"2022-151VX","EPOCH":"2026-03-09T17:15:51.308640","MEAN_MOTION":15.17668829,"ECCENTRICITY":0.00301527,"INCLINATION":98.6392,"RA_OF_ASC_NODE":152.1249,"ARG_OF_PERICENTER":179.6266,"MEAN_ANOMALY":180.4992,"EPHEMERIS_TYPE":0,"CLASSIFICATION_TYPE":"U","NORAD_CAT_ID":55206,"ELEMENT_SET_NO":999,"REV_AT_EPOCH":17057,"BSTAR":0.00785456,"MEAN_MOTION_DOT":0.00163373,"MEAN_MOTION_DDOT":0}]
